HAWK-A                  
1 43765U 18099H   26197.61638914  .00003776  00000+0  15182-3 0  9997
2 43765  97.3895 249.4721 0034888 178.9967 181.1347 15.24975549417586
HAWK-B                  
1 43794U 18099AN  26197.67328223  .00003341  00000+0  14271-3 0  9990
2 43794  97.3943 248.8811 0031535 196.8320 163.1874 15.23125267417525
HAWK-C                  
1 43799U 18099AT  26197.85305544  .00004728  00000+0  16914-3 0  9992
2 43799  97.3871 250.7657 0040470 177.9770 182.1641 15.28506553418448
HAWK-2C                 
1 47502U 21006CT  26197.68596024  .00003619  00000+0  10878-3 0  9997
2 47502  97.2261 241.4114 0008678  96.6897 263.5334 15.35000229304020
HAWK-2A                 
1 47505U 21006CW  26197.68816308  .00004423  00000+0  13239-3 0  9998
2 47505  97.2303 242.1085 0008210  99.9973 260.2197 15.35021611304027
HAWK-2B                 
1 47508U 21006CZ  26197.61638051  .00004224  00000+0  12600-3 0  9991
2 47508  97.2174 240.3238 0008770  98.6106 261.6132 15.35148492304011
HAWK-3B                 
1 48931U 21059BE  26197.50073101  .00030374  00000+0  23387-3 0  9996
2 48931  97.6631  37.0342 0004634 193.4440 166.6700 15.71948524282453
HAWK-3C                 
1 48948U 21059BX  26197.56407206  .00031986  00000+0  24609-3 0  9995
2 48948  97.6747  42.8396 0004900 193.7656 166.3473 15.71954344282462
HAWK-3A                 
1 48957U 21059CG  26197.56395892  .00029863  00000+0  22989-3 0  9992
2 48957  97.6691  40.0209 0004820 195.8610 164.2502 15.71953796282467
HAWK-5C                 
1 52754U 22057Y   26197.44670912  .00011022  00000+0  18260-3 0  9992
2 52754  97.6619 359.0269 0002676 341.0919  19.0233 15.52353614230889
HAWK-5B                 
1 52756U 22057AA  26197.83328975  .00010652  00000+0  17649-3 0  9994
2 52756  97.6633 357.7930 0003341 324.6672  35.4358 15.52358501230947
HAWK-5A                 
1 52757U 22057AB  26197.44632949  .00011042  00000+0  18293-3 0  9991
2 52757  97.6626 358.2106 0003229 332.4655  27.6425 15.52352143230881
HAWK-6B                 
1 55324U 23011A   26197.36210138  .00002488  00000+0  11122-3 0  9996
2 55324  40.4972 181.8706 0004316 246.4239 113.6117 15.23160082192293
HAWK-6C                 
1 55326U 23011C   26197.36146936  .00002165  00000+0  97874-4 0  9993
2 55326  40.4963 178.7100 0004830 240.0320 120.0010 15.23160464192300
HAWK-6A                 
1 55327U 23011D   26197.36150698  .00002286  00000+0  10286-3 0  9999
2 55327  40.4973 180.3367 0004429 237.1478 122.8905 15.23160255192302
HAWK-7A                 
1 56191U 23054P   26197.72012369  .00002981  00000+0  11301-3 0  9999
2 56191  97.2658  84.3065 0001252 324.0087  36.1068 15.27641958181531
